NORAD_CAT_ID,OBJECT_NAME,OBJECT_TYPE,EPOCH,MEAN_MOTION,ECCENTRICITY,INCLINATION,RA_OF_ASC_NODE,ARG_OF_PERICENTER,MEAN_ANOMALY,BSTAR,MEAN_MOTION_DOT,MEAN_MOTION_DDOT,TLE_LINE0,TLE_LINE1,TLE_LINE2,SEMIMAJOR_AXIS,PERIOD,APOGEE,PERIGEE,DECAYED
53603.0,STARLINK-4692,PAYLOAD,2024-06-10 04:50:40,15.08839626,0.0001383,53.2158,221.091,76.9993,283.1154,9.1173e-05,1.163e-05,0.0,0 STARLINK-4692,1 53603U 22104R   24162.20185944  .00001163  00000-0  91173-4 0  9990,2 53603  53.2158 221.0910 0001383  76.9993 283.1154 15.08839626 98757,6917.882,95.438,540.703,538.79,0.0
53603.0,STARLINK-4692,PAYLOAD,2024-06-10 11:12:13,15.08844331,0.0001383,53.2154,219.9029,79.9499,280.1649,0.00061757,9.555e-05,0.0,0 STARLINK-4692,1 53603U 22104R   24162.46682092  .00009555  00000-0  61757-3 0  9991,2 53603  53.2154 219.9029 0001383  79.9499 280.1649 15.08844331 99480,6917.867,95.437,540.689,538.775,0.0
53603.0,STARLINK-4692,PAYLOAD,2024-06-10 20:44:32,15.0884376,0.0001346,53.2151,218.1192,80.6118,279.5027,0.00042499,6.483e-05,0.0,0 STARLINK-4692,1 53603U 22104R   24162.86426156  .00006483  00000-0  42499-3 0  9991,2 53603  53.2151 218.1192 0001346  80.6118 279.5027 15.08843760 99549,6917.869,95.437,540.665,538.803,0.0
53603.0,STARLINK-4692,PAYLOAD,2024-06-11 11:03:00,15.08846406,0.0001361,53.2148,215.4427,79.9056,280.2089,0.00031129,4.671e-05,0.0,0 STARLINK-4692,1 53603U 22104R   24163.46042024  .00004671  00000-0  31129-3 0  9991,2 53603  53.2148 215.4427 0001361  79.9056 280.2089 15.08846406 99632,6917.861,95.437,540.667,538.784,0.0
53603.0,STARLINK-4692,PAYLOAD,2024-06-11 20:35:19,15.08844682,0.0001355,53.2146,213.6585,79.3878,280.7267,0.00020706,3.009e-05,0.0,0 STARLINK-4692,1 53603U 22104R   24163.85785990  .00003009  00000-0  20706-3 0  9993,2 53603  53.2146 213.6585 0001355  79.3878 280.7267 15.08844682 99002,6917.866,95.437,540.668,538.794,0.0
53603.0,STARLINK-4692,PAYLOAD,2024-06-12 10:53:47,15.08842524,0.0001346,53.2148,210.9818,80.4597,279.6548,7.452e-05,8.98e-06,0.0,0 STARLINK-4692,1 53603U 22104R   24164.45402127  .00000898  00000-0  74520-4 0  9995,2 53603  53.2148 210.9818 0001346  80.4597 279.6548 15.08842524 99095,6917.873,95.437,540.669,538.807,0.0
53603.0,STARLINK-4692,PAYLOAD,2024-06-13 09:09:10,15.08848901,0.0001322,53.2146,206.8182,80.6204,279.4937,0.00015478,2.177e-05,0.0,0 STARLINK-4692,1 53603U 22104R   24165.38137633  .00002177  00000-0  15478-3 0  9993,2 53603  53.2146 206.8182 0001322  80.6204 279.4937 15.08848901 99929,6917.853,95.437,540.633,538.804,0.0
53603.0,STARLINK-4692,PAYLOAD,2024-06-14 12:10:44,15.08834232,0.0001405,53.2163,201.7619,96.3341,263.7811,5.5598e-05,5.97e-06,0.0,0 STARLINK-4692,1 53603U 22104R   24166.50746437  .00000597  00000-0  55598-4 0  9998,2 53603  53.2163 201.7619 0001405  96.3341 263.7811 15.08834232100095,6917.898,95.438,540.735,538.791,0.0
53603.0,STARLINK-4692,PAYLOAD,2024-06-15 12:01:31,15.08842018,0.0001383,53.2164,197.3017,94.1923,265.9227,1.8275e-05,3e-08,0.0,0 STARLINK-4692,1 53603U 22104R   24167.50105985  .00000003  00000-0  18275-4 0  9999,2 53603  53.2164 197.3017 0001383  94.1923 265.9227 15.08842018100248,6917.874,95.437,540.696,538.782,0.0
53603.0,STARLINK-4692,PAYLOAD,2024-06-16 08:41:32,15.08836934,0.0001288,53.2159,193.4356,92.0742,268.0398,0.00010816,1.434e-05,0.0,0 STARLINK-4692,1 53603U 22104R   24168.36218251  .00001434  00000-0  10816-3 0  9996,2 53603  53.2159 193.4356 0001288  92.0742 268.0398 15.08836934100372,6917.89,95.438,540.646,538.864,0.0
53603.0,STARLINK-4692,PAYLOAD,2024-06-17 18:04:39,15.08835658,0.000127,53.2158,187.1913,89.6348,270.4789,2.8548e-05,1.66e-06,0.0,0 STARLINK-4692,1 53603U 22104R   24169.75322977  .00000166  00000-0  28548-4 0  9994,2 53603  53.2158 187.1913 0001270  89.6348 270.4789 15.08835658100581,6917.894,95.438,540.637,538.88,0.0
53603.0,STARLINK-4692,PAYLOAD,2024-06-18 09:58:30,15.08838939,0.0001274,53.2156,184.2175,86.8763,273.2375,6.4258e-05,7.35e-06,0.0,0 STARLINK-4692,1 53603U 22104R   24170.41562819  .00000735  00000-0  64258-4 0  9990,2 53603  53.2156 184.2175 0001274  86.8763 273.2375 15.08838939100689,6917.884,95.438,540.63,538.867,0.0
53603.0,STARLINK-4692,PAYLOAD,2024-06-18 17:55:26,15.08834742,0.0001275,53.2155,182.7308,88.8294,271.2844,4.0484e-05,3.56e-06,0.0,0 STARLINK-4692,1 53603U 22104R   24170.74683203  .00000356  00000-0  40484-4 0  9991,2 53603  53.2155 182.7308 0001275  88.8294 271.2844 15.08834742100048,6917.896,95.438,540.643,538.879,0.0
53603.0,STARLINK-4692,PAYLOAD,2024-06-19 08:13:54,15.08832449,0.0001317,53.2159,180.0545,88.8595,271.2548,3.8722e-05,3.28e-06,0.0,0 STARLINK-4692,1 53603U 22104R   24171.34299606  .00000328  00000-0  38722-4 0  9999,2 53603  53.2159 180.0545 0001317  88.8595 271.2548 15.08832449100826,6917.903,95.438,540.68,538.857,0.0
53603.0,STARLINK-4692,PAYLOAD,2024-06-19 17:46:13,15.08836059,0.0001321,53.2158,178.2702,87.4148,272.6996,5.6991e-05,6.19e-06,0.0,0 STARLINK-4692,1 53603U 22104R   24171.74043443  .00000619  00000-0  56991-4 0  9990,2 53603  53.2158 178.2702 0001321  87.4148 272.6996 15.08836059100882,6917.892,95.438,540.671,538.844,0.0
53603.0,STARLINK-4692,PAYLOAD,2024-06-20 04:53:55,15.08840292,0.0001384,53.2163,176.1882,87.4362,272.6789,5.2636e-05,5.5e-06,0.0,0 STARLINK-4692,1 53603U 22104R   24172.20411247  .00000550  00000-0  52636-4 0  9999,2 53603  53.2163 176.1882 0001384  87.4362 272.6789 15.08840292100267,6917.879,95.438,540.702,538.787,0.0
53603.0,STARLINK-4692,PAYLOAD,2024-06-20 08:04:41,15.08841473,0.0001355,53.216,175.5933,88.3444,271.7703,5.487e-05,5.85e-06,0.0,0 STARLINK-4692,1 53603U 22104R   24172.33659147  .00000585  00000-0  54870-4 0  9996,2 53603  53.2160 175.5933 0001355  88.3444 271.7703 15.08841473100979,6917.876,95.437,540.678,538.804,0.0
53603.0,STARLINK-4692,PAYLOAD,2024-06-21 06:20:05,15.08844646,0.0001334,53.2165,171.4303,88.2164,271.8981,0.00010686,1.413e-05,0.0,0 STARLINK-4692,1 53603U 22104R   24173.26394723  .00001413  00000-0  10686-3 0  9992,2 53603  53.2165 171.4303 0001334  88.2164 271.8981 15.08844646100429,6917.866,95.437,540.654,538.808,0.0
53603.0,STARLINK-4692,PAYLOAD,2024-06-22 04:35:29,15.08841984,0.000133,53.2164,167.2674,87.2312,272.8833,3.6944e-05,3e-06,0.0,0 STARLINK-4692,1 53603U 22104R   24174.19130926  .00000300  00000-0  36944-4 0  9998,2 53603  53.2164 167.2674 0001330  87.2312 272.8833 15.08841984100566,6917.874,95.437,540.659,538.819,0.0
53603.0,STARLINK-4692,PAYLOAD,2024-06-22 09:21:38,15.08843458,0.0001331,53.2164,166.3752,87.5019,272.6125,3.0811e-05,2.03e-06,0.0,0 STARLINK-4692,1 53603U 22104R   24174.39002797  .00000203  00000-0  30811-4 0  9993,2 53603  53.2164 166.3752 0001331  87.5019 272.6125 15.08843458101281,6917.87,95.437,540.656,538.814,0.0
53603.0,STARLINK-4692,PAYLOAD,2024-06-23 09:12:25,15.08839479,0.0001389,53.2164,161.9143,94.3644,265.7507,-2.6391e-05,-7.08e-06,0.0,0 STARLINK-4692,1 53603U 22104R   24175.38363096 -.00000708  00000-0 -26391-4 0  9995,2 53603  53.2164 161.9143 0001389  94.3644 265.7507 15.08839479100744,6917.882,95.438,540.708,538.786,0.0
53603.0,STARLINK-4692,PAYLOAD,2024-06-23 21:55:30,15.08836969,0.0001409,53.2167,159.5347,99.0304,261.0848,2.8859e-05,1.71e-06,0.0,0 STARLINK-4692,1 53603U 22104R   24175.91355046  .00000171  00000-0  28859-4 0  9993,2 53603  53.2167 159.5347 0001409  99.0304 261.0848 15.08836969101518,6917.89,95.438,540.729,538.78,0.0
53603.0,STARLINK-4692,PAYLOAD,2024-06-24 05:52:26,15.08840664,0.0001407,53.2166,158.0484,96.0521,264.0631,5.5237e-05,5.91e-06,0.0,0 STARLINK-4692,1 53603U 22104R   24176.24474760  .00000591  00000-0  55237-4 0  9991,2 53603  53.2166 158.0484 0001407  96.0521 264.0631 15.08840664101564,6917.878,95.438,540.717,538.77,0.0
53603.0,STARLINK-4692,PAYLOAD,2024-06-25 04:07:50,15.08831254,0.000146,53.2168,153.8863,101.795,258.3206,2.4386e-06,-2.49e-06,0.0,0 STARLINK-4692,1 53603U 22104R   24177.17211789 -.00000249  00000-0  24386-5 0  9997,2 53603  53.2168 153.8863 0001460 101.7950 258.3206 15.08831254101018,6917.907,95.438,540.782,538.762,0.0
53603.0,STARLINK-4692,PAYLOAD,2024-06-25 05:43:14,15.08831075,0.000144,53.2167,153.589,100.0921,260.0234,-2.4282e-07,-2.92e-06,0.0,0 STARLINK-4692,1 53603U 22104R   24177.23835853 -.00000292  00000-0 -24282-6 0  9993,2 53603  53.2167 153.5890 0001440 100.0921 260.0234 15.08831075101711,6917.908,95.438,540.769,538.776,0.0
53603.0,STARLINK-4692,PAYLOAD,2024-06-26 03:58:37,15.08839843,0.000145,53.2165,149.4261,101.3842,258.7313,4.9441e-05,4.99e-06,0.0,0 STARLINK-4692,1 53603U 22104R   24178.16571392  .00000499  00000-0  49441-4 0  9990,2 53603  53.2165 149.4261 0001450 101.3842 258.7313 15.08839843101164,6917.881,95.438,540.749,538.743,0.0
53603.0,STARLINK-4692,PAYLOAD,2024-06-26 05:34:00,15.08842094,0.000139,53.2163,149.1281,92.9039,267.2112,6.0125e-05,6.69e-06,0.0,0 STARLINK-4692,1 53603U 22104R   24178.23195274  .00000669  00000-0  60125-4 0  9990,2 53603  53.2163 149.1281 0001390  92.9039 267.2112 15.08842094101868,6917.874,95.437,540.701,538.777,0.0
53603.0,STARLINK-4692,PAYLOAD,2024-06-27 05:24:47,15.08841518,0.0001414,53.2164,144.6636,81.7184,278.3969,0.00010123,1.324e-05,0.0,0 STARLINK-4692,1 53603U 22104R   24179.22555391  .00001324  00000-0  10123-3 0  9991,2 53603  53.2164 144.6636 0001414  81.7184 278.3969 15.08841518101321,6917.876,95.437,540.719,538.763,0.0
53603.0,STARLINK-4692,PAYLOAD,2024-06-27 14:57:06,15.08838739,0.0001348,53.2155,142.8848,90.7602,269.3544,5.168e-05,5.35e-06,0.0,0 STARLINK-4692,1 53603U 22104R   24179.62299744  .00000535  00000-0  51680-4 0  9999,2 53603  53.2155 142.8848 0001348  90.7602 269.3544 15.08838739102070,6917.884,95.438,540.682,538.817,0.0
53603.0,STARLINK-4692,PAYLOAD,2024-06-28 03:40:12,15.0884006,0.0001126,53.2146,140.5024,100.9698,259.1421,-1.1035e-05,-4.63e-06,0.0,0 STARLINK-4692,1 53603U 22104R   24180.15291801 -.00000463  00000-0 -11035-4 0  9997,2 53603  53.2146 140.5024 0001126 100.9698 259.1421 15.08840060101467,6917.88,95.438,540.524,538.966,0.0
